[{"OBJECT_NAME":"STARLINK-5938","OBJECT_ID":"2023-037AY","EPOCH":"2026-03-09T23:17:21.115392","MEAN_MOTION":14.98346488,"ECCENTRICITY":0.00042438,"INCLINATION":69.9975,"RA_OF_ASC_NODE":263.7927,"ARG_OF_PERICENTER":337.2128,"MEAN_ANOMALY":22.8842,"EPHEMERIS_TYPE":0,"CLASSIFICATION_TYPE":"U","NORAD_CAT_ID":55960,"ELEMENT_SET_NO":999,"REV_AT_EPOCH":16451,"BSTAR":0.00018218909,"MEAN_MOTION_DOT":2.082e-5,"MEAN_MOTION_DDOT":0},{"OBJECT_NAME":"CZ-6A R\/B","OBJECT_ID":"2024-126D","EPOCH":"2026-03-09T19:23:06.789408","MEAN_MOTION":15.13279149,"ECCENTRICITY":0.00704729,"INCLINATION":97.7886,"RA_OF_ASC_NODE":97.6113,"ARG_OF_PERICENTER":100.2752,"MEAN_ANOMALY":260.6434,"EPHEMERIS_TYPE":0,"CLASSIFICATION_TYPE":"U","NORAD_CAT_ID":60214,"ELEMENT_SET_NO":999,"REV_AT_EPOCH":9240,"BSTAR":0.00030839807,"MEAN_MOTION_DOT":5.76e-5,"MEAN_MOTION_DDOT":0}]
